{"epoch":1784710044,"count":18256,"objects":[{"id":"35682","name":"DUBAISAT 1","type":"PAYLOAD","l1":"1 35682U 09041B   26202.34354578  .00000553  00000-0  89417-4 0  9995","l2":"2 35682  98.0092 335.2356 0009476 327.6007  32.4619 14.75172952910134"},{"id":"35931","name":"OCEANSAT 2","type":"PAYLOAD","l1":"1 35931U 09051A   26202.58437855  .00000104  00000-0  96896-4 0  9990","l2":"2 35931  98.2326 186.0016 0017726 135.2212 225.0389 13.99656504884146"},{"id":"35946","name":"WORLDVIEW 2","type":"PAYLOAD","l1":"1 35946U 09055A   26202.60878659  .00000050  00000-0  30939-4 0  9990","l2":"2 35946  98.4751 275.5897 0005506 114.7017 245.4744 14.37908160880592"},{"id":"36036","name":"SMOS","type":"PAYLOAD","l1":"1 36036U 09059A   26202.45116381  .00000190  00000-0  74463-4 0  9990","l2":"2 36036  98.4431  29.2841 0001207  98.4181 261.7144 14.39738487878389"},{"id":"36110","name":"YAOGAN 7","type":"PAYLOAD","l1":"1 36110U 09069A   26202.61511534  .00000291  00000-0  47494-4 0  9997","l2":"2 36110  98.0024  88.2623 0023208 289.6139  70.2567 14.78039406894716"},{"id":"36605","name":"TANDEM X","type":"PAYLOAD","l1":"1 36605U 10030A   26202.44323971  .00000080  00000-0  69995-5 0  9990","l2":"2 36605  97.4466 209.6630 0001785 100.1073 260.0363 15.19148789891840"},{"id":"36795","name":"CARTOSAT 2B","type":"PAYLOAD","l1":"1 36795U 10035A   26202.58110858  .00000949  00000-0  13644-3 0  9990","l2":"2 36795  97.9932 252.9070 0012770  81.9281 278.3378 14.78657393864933"},{"id":"36834","name":"YAOGAN 10","type":"PAYLOAD","l1":"1 36834U 10038A   26202.64823600  .00001548  00000-0  18578-3 0  9997","l2":"2 36834  97.8973 225.7782 0001645  84.5180  25.8437 14.85443026862321"},{"id":"37216","name":"SKYMED 4","type":"PAYLOAD","l1":"1 37216U 10060A   26202.87414014  .00000374  00000-0  53551-4 0  9994","l2":"2 37216  97.8900  25.9727 0001468  90.5169 269.6212 14.82156050849703"},{"id":"37387","name":"RESOURCESAT 2","type":"PAYLOAD","l1":"1 37387U 11015A   26202.57661785  .00000027  00000-0  32318-4 0  9993","l2":"2 37387  98.7626 269.7776 0011912 153.5123 206.6665 14.21600528791069"},{"id":"37781","name":"HAIYANG 2A","type":"PAYLOAD","l1":"1 37781U 11043A   26202.55982770 -.00000005  00000-0  41939-4 0  9996","l2":"2 37781  99.3414 204.4431 0001440  21.2602 338.8606 13.73102394751378"},{"id":"37791","name":"RASAT","type":"PAYLOAD","l1":"1 37791U 11044D   26202.60393604  .00000302  00000-0  60754-4 0  9991","l2":"2 37791  98.0575 293.4763 0021958  83.8281  28.2169 14.68196856798233"},{"id":"37841","name":"SRMSAT","type":"PAYLOAD","l1":"1 37841U 11058D   26202.37626957  .00000342  00000-0  41913-4 0  9996","l2":"2 37841  19.9702 212.5309 0011589 219.4908 265.6668 14.11581900762657"},{"id":"38012","name":"PLEIADES 1","type":"PAYLOAD","l1":"1 38012U 11076F   26202.65091175  .00000365  00000-0  88432-4 0  9998","l2":"2 38012  98.1960 277.2886 0001596  78.0079  80.2641 14.58549688777012"},{"id":"38038","name":"ZY 1","type":"PAYLOAD","l1":"1 38038U 11079A   26202.66941711  .00000484  00000-0  17349-3 0  9990","l2":"2 38038  98.4051 269.2550 0006053 193.1525 318.9899 14.38239918764169"},{"id":"38338","name":"KOMPSAT 3","type":"PAYLOAD","l1":"1 38338U 12025B   26202.58980402  .00000305  00000-0  69765-4 0  9998","l2":"2 38338  98.1189 159.4605 0005817  21.2260 338.9182 14.62232751756372"},{"id":"38709","name":"EXACTVIEW-1","type":"PAYLOAD","l1":"1 38709U 12039C   26202.57615316  .00000059  00000-0  45062-4 0  9993","l2":"2 38709  98.9810 320.7485 0011871  74.7440 285.5050 14.24993381727608"},{"id":"38755","name":"SPOT 6","type":"PAYLOAD","l1":"1 38755U 12047A   26202.63618340  .00000359  00000-0  87106-4 0  9998","l2":"2 38755  98.2099 269.5388 0001132  92.8265 267.3064 14.58541618738073"},{"id":"39019","name":"PLEIADES 1B","type":"PAYLOAD","l1":"1 39019U 12068A   26202.58619773  .00000306  00000-0  75783-4 0  9990","l2":"2 39019  98.1931 277.1619 0001492  78.6878 281.4489 14.58536997725869"},{"id":"39030","name":"GOKTURK 2","type":"PAYLOAD","l1":"1 39030U 12073A   26202.59724625  .00000357  00000-0  59309-4 0  9995","l2":"2 39030  97.6816  38.3021 0001096 106.3672 253.7659 14.75572085729584"},{"id":"39084","name":"LANDSAT 8","type":"PAYLOAD","l1":"1 39084U 13008A   26202.56572164  .00000215  00000-0  57916-4 0  9994","l2":"2 39084  98.2285 272.2897 0001338  91.8641 268.2711 14.57097234702908"},{"id":"39086","name":"SARAL","type":"PAYLOAD","l1":"1 39086U 13009A   26202.60656486  .00000049  00000-0  33973-4 0  9994","l2":"2 39086  98.5560  28.7389 0002072 152.2432 207.8863 14.32896877700532"},{"id":"39150","name":"GAOFEN 1","type":"PAYLOAD","l1":"1 39150U 13018A   26202.62458456  .00000510  00000-0  80300-4 0  9994","l2":"2 39150  97.9076 273.9898 0017656 150.9869 209.2327 14.76523192713328"},{"id":"39160","name":"VNREDSAT 1","type":"PAYLOAD","l1":"1 39160U 13021B   26202.58368795  .00000322  00000-0  68763-4 0  9990","l2":"2 39160  97.9059 254.6768 0001555  82.4932 277.6448 14.64887830705326"},{"id":"39227","name":"KOMPSAT 5","type":"PAYLOAD","l1":"1 39227U 13042A   26202.68392446  .00000656  00000-0  51219-4 0  9996","l2":"2 39227  97.6200  28.8995 0004436  38.7193 321.4351 15.04503647709042"},{"id":"39418","name":"SKYSAT 1","type":"PAYLOAD","l1":"1 39418U 13066C   26202.11753306  .00001920  00000-0  11144-3 0  9995","l2":"2 39418  97.3797 250.4333 0021024 192.3397 167.7323 15.13136302693611"},{"id":"39419","name":"DUBAISAT 2","type":"PAYLOAD","l1":"1 39419U 13066D   26202.58899198  .00003420  00000-0  21184-3 0  9999","l2":"2 39419  97.4586 191.8406 0009285 276.3310  83.6862 15.10400332691583"},{"id":"39574","name":"GPM","type":"PAYLOAD","l1":"1 39574U 14009C   26202.51880405  .00005294  00000-0  11649-3 0  9999","l2":"2 39574  64.9698 193.0913 0010870 263.7636  96.2266 15.45093183703119"},{"id":"39634","name":"SENTINEL 1A","type":"PAYLOAD","l1":"1 39634U 14016A   26202.58469653  .00000103  00000-0  31533-4 0  9998","l2":"2 39634  98.1714 209.6122 0001435  85.1809 274.9554 14.59173297655036"},{"id":"39731","name":"KAZEOSAT 1","type":"PAYLOAD","l1":"1 39731U 14024A   26202.64511573  .00000396  00000-0  13374-3 0  9997","l2":"2 39731  98.3187 274.2322 0001218  88.6855 271.4474 14.42039946643526"}]}