OBJECT_NAME,OBJECT_ID,EPOCH,MEAN_MOTION,ECCENTRICITY,INCLINATION,RA_OF_ASC_NODE,ARG_OF_PERICENTER,MEAN_ANOMALY,EPHEMERIS_TYPE,CLASSIFICATION_TYPE,NORAD_CAT_ID,ELEMENT_SET_NO,REV_AT_EPOCH,BSTAR,MEAN_MOTION_DOT,MEAN_MOTION_DDOT
DUBAISAT-1,2009-041B,2026-07-21T08:14:42.355392,14.75172952,.00094756,98.0092,335.2356,327.6007,32.4619,0,U,35682,999,91013,.89416929E-4,.553E-5,0
OCEANSAT-2,2009-051A,2026-07-21T14:01:30.306720,13.99656504,.00177262,98.2326,186.0016,135.2212,225.0389,0,U,35931,999,88414,.96895625E-4,.104E-5,0
WORLDVIEW-2 (WV-2),2009-055A,2026-07-21T14:36:39.161376,14.37908160,.00055057,98.4751,275.5897,114.7017,245.4744,0,U,35946,999,88059,.30938541E-4,.5E-6,0
SMOS,2009-059A,2026-07-21T10:49:40.553184,14.39738487,.00012075,98.4431,29.2841,98.4181,261.7144,0,U,36036,999,87838,.74463005E-4,.19E-5,0
YAOGAN-7,2009-069A,2026-07-21T14:45:45.965376,14.78039406,.00232078,98.0024,88.2623,289.6139,70.2567,0,U,36110,999,89471,.47493643E-4,.291E-5,0
TANDEM-X,2010-030A,2026-07-21T10:38:15.910944,15.19148789,.00017851,97.4466,209.6630,100.1073,260.0363,0,U,36605,999,89184,.6999469E-5,.8E-6,0
CARTOSAT-2B,2010-035A,2026-07-21T13:56:47.781312,14.78657393,.00127703,97.9932,252.9070,81.9281,278.3378,0,U,36795,999,86493,.13643735E-3,.949E-5,0
YAOGAN-10,2010-038A,2026-07-21T15:33:27.590400,14.85443026,.00016454,97.8973,225.7782,84.5180,25.8437,0,U,36834,999,86232,.18578459E-3,.1548E-4,0
COSMO-SKYMED 4,2010-060A,2026-07-21T20:58:45.708096,14.82156050,.0001468,97.8900,25.9727,90.5169,269.6212,0,U,37216,999,84970,.53551E-4,.374E-5,0
RESOURCESAT-2,2011-015A,2026-07-21T13:50:19.782240,14.21600528,.00119121,98.7626,269.7776,153.5123,206.6665,0,U,37387,999,79106,.32318112E-4,.27E-6,0
HAIYANG-2A,2011-043A,2026-07-21T13:26:09.113280,13.73102394,.00014405,99.3414,204.4431,21.2602,338.8606,0,U,37781,999,75137,.41938514E-4,-.5E-7,0
RASAT,2011-044D,2026-07-21T14:29:40.073856,14.68196856,.00219578,98.0575,293.4763,83.8281,28.2169,0,U,37791,999,79823,.60753608E-4,.302E-5,0
SRMSAT,2011-058D,2026-07-21T09:01:49.690848,14.11581900,.00115886,19.9702,212.5309,219.4908,265.6668,0,U,37841,999,76265,.41912991E-4,.342E-5,0
PLEIADES 1A,2011-076F,2026-07-21T15:37:18.775200,14.58549688,.00015964,98.1960,277.2886,78.0079,80.2641,0,U,38012,999,77701,.88431542E-4,.365E-5,0
ZIYUAN 1-02C (ZY 1-02C),2011-079A,2026-07-21T16:03:57.638304,14.38239918,.00060535,98.4051,269.2550,193.1525,318.9899,0,U,38038,999,76416,.1734924E-3,.484E-5,0
ARIRANG-3 (KOMPSAT-3),2012-025B,2026-07-21T14:09:19.067328,14.62232751,.00058174,98.1189,159.4605,21.2260,338.9182,0,U,38338,999,75637,.69765014E-4,.305E-5,0
EXACTVIEW-1 (ADS-1B),2012-039C,2026-07-21T13:49:39.633024,14.24993381,.00118712,98.9810,320.7485,74.7440,285.5050,0,U,38709,999,72760,.45061558E-4,.59E-6,0
SPOT 6,2012-047A,2026-07-21T15:16:06.245760,14.58541618,.00011318,98.2099,269.5388,92.8265,267.3064,0,U,38755,999,73807,.87105829E-4,.359E-5,0
PLEIADES 1B,2012-068A,2026-07-21T14:04:07.483872,14.58536997,.00014924,98.1931,277.1619,78.6878,281.4489,0,U,39019,999,72586,.75782571E-4,.306E-5,0
GOKTURK 2,2012-073A,2026-07-21T14:20:02.076000,14.75572085,.0001096,97.6816,38.3021,106.3672,253.7659,0,U,39030,999,72958,.59309193E-4,.357E-5,0
LANDSAT 8,2013-008A,2026-07-21T13:34:38.349696,14.57097234,.00013376,98.2285,272.2897,91.8641,268.2711,0,U,39084,999,70290,.57916193E-4,.215E-5,0
SARAL,2013-009A,2026-07-21T14:33:27.203904,14.32896877,.00020719,98.5560,28.7389,152.2432,207.8863,0,U,39086,999,70053,.33972541E-4,.49E-6,0
GAOFEN-1,2013-018A,2026-07-21T14:59:24.105984,14.76523192,.00176565,97.9076,273.9898,150.9869,209.2327,0,U,39150,999,71332,.80300278E-4,.51E-5,0
VNREDSAT 1,2013-021B,2026-07-21T14:00:30.638880,14.64887830,.00015553,97.9059,254.6768,82.4932,277.6448,0,U,39160,999,70532,.68762908E-4,.322E-5,0
ARIRANG-5 (KOMPSAT-5),2013-042A,2026-07-21T16:24:51.073344,15.04503647,.0004436,97.6200,28.8995,38.7193,321.4351,0,U,39227,999,70904,.51219E-4,.656E-5,0
SKYSAT-A,2013-066C,2026-07-21T02:49:14.856384,15.13136302,.00210244,97.3797,250.4333,192.3397,167.7323,0,U,39418,999,69361,.11144325E-3,.192E-4,0
DUBAISAT-2,2013-066D,2026-07-21T14:08:08.907072,15.10400332,.00092848,97.4586,191.8406,276.3310,83.6862,0,U,39419,999,69158,.21184189E-3,.342E-4,0
GPM-CORE,2014-009C,2026-07-21T12:27:04.669920,15.45093183,.00108703,64.9698,193.0913,263.7636,96.2266,0,U,39574,999,70311,.11649142E-3,.5294E-4,0
SENTINEL-1A,2014-016A,2026-07-21T14:01:57.780192,14.59173297,.0001435,98.1714,209.6122,85.1809,274.9554,0,U,39634,999,65503,.31533E-4,.103E-5,0
KAZEOSAT 1,2014-024A,2026-07-21T15:28:57.999072,14.42039946,.00012175,98.3187,274.2322,88.6855,271.4474,0,U,39731,999,64352,.13374131E-3,.396E-5,0
